STARLINK-1363           
1 45568U 20025AP  26068.19024867  .00121445  00000+0  73874-3 0  9994
2 45568  53.0430  40.2129 0008307  56.0535 304.1273 15.76582535325978
STARLINK-36712          
1 67700U 26025H   26068.77628414  .00261384  00000+0  17011-2 0  9991
2 67700  97.2833 180.3591 0000653 105.1896 254.9441 15.75177517  5959
