[{"OBJECT_NAME":"STARLINK-1363","OBJECT_ID":"2020-025AP","EPOCH":"2026-03-09T04:33:57.485088","MEAN_MOTION":15.76582535,"ECCENTRICITY":0.00083079,"INCLINATION":53.043,"RA_OF_ASC_NODE":40.2129,"ARG_OF_PERICENTER":56.0535,"MEAN_ANOMALY":304.1273,"EPHEMERIS_TYPE":0,"CLASSIFICATION_TYPE":"U","NORAD_CAT_ID":45568,"ELEMENT_SET_NO":999,"REV_AT_EPOCH":32597,"BSTAR":0.00073874012,"MEAN_MOTION_DOT":0.00121445,"MEAN_MOTION_DDOT":0},{"OBJECT_NAME":"STARLINK-36712","OBJECT_ID":"2026-025H","EPOCH":"2026-03-09T18:37:50.950560","MEAN_MOTION":15.75177517,"ECCENTRICITY":6.529e-5,"INCLINATION":97.2833,"RA_OF_ASC_NODE":180.3591,"ARG_OF_PERICENTER":105.1896,"MEAN_ANOMALY":254.9441,"EPHEMERIS_TYPE":0,"CLASSIFICATION_TYPE":"U","NORAD_CAT_ID":67700,"ELEMENT_SET_NO":999,"REV_AT_EPOCH":595,"BSTAR":0.0017010842,"MEAN_MOTION_DOT":0.00261384,"MEAN_MOTION_DDOT":0}]
